{
  "type": "FeatureCollection",
  "features": [
    {
      "type": "Feature",
      "properties": {
        "norad_id": 66491,
        "name": "STARLINK-35663",
        "group": "last-30-days",
        "lat": 20.92460657330728,
        "lon": -20.980249721306354,
        "alt_km": 344.925684613424,
        "timestamp": "2025-12-02T21:34:00.042405+00:00",
        "meta_object_name": "STARLINK-35663",
        "meta_object_id": "2025-263G",
        "meta_epoch": "2025-12-02T12:00:05.998752",
        "meta_mean_motion": 15.7543154,
        "meta_eccentricity": 0.0001802,
        "meta_inclination": 42.9988,
        "meta_ra_of_asc_node": 185.6633,
        "meta_arg_of_pericenter": 265.7338,
        "meta_mean_anomaly": 140.5783,
        "meta_ephemeris_type": 0,
        "meta_classification_type": "U",
        "meta_norad_cat_id": 66491,
        "meta_element_set_no": 999,
        "meta_rev_at_epoch": 399,
        "meta_bstar": -0.012294,
        "meta_mean_motion_dot": -0.01698583,
        "meta_mean_motion_ddot": 0,
        "tle_line1": "1 66491U 25263G   25336.50006943 -.01698583  00000+0 -12294-1 0  9990",
        "tle_line2": "2 66491  42.9988 185.6633 0001802 265.7338 140.5783 15.75431540  3999"
      },
      "geometry": {
        "type": "Point",
        "coordinates": [
          -20.980249721306354,
          20.92460657330728
        ]
      }
    },
    {
      "type": "Feature",
      "properties": {
        "norad_id": 66492,
        "name": "STARLINK-35673",
        "group": "last-30-days",
        "lat": 19.7230234486011,
        "lon": -19.38681471716407,
        "alt_km": 345.2237768041814,
        "timestamp": "2025-12-02T21:34:00.042415+00:00",
        "meta_object_name": "STARLINK-35673",
        "meta_object_id": "2025-263H",
        "meta_epoch": "2025-12-02T12:00:05.998752",
        "meta_mean_motion": 15.75401934,
        "meta_eccentricity": 0.0001689,
        "meta_inclination": 42.9988,
        "meta_ra_of_asc_node": 185.6584,
        "meta_arg_of_pericenter": 276.3582,
        "meta_mean_anomaly": 131.8785,
        "meta_ephemeris_type": 0,
        "meta_classification_type": "U",
        "meta_norad_cat_id": 66492,
        "meta_element_set_no": 999,
        "meta_rev_at_epoch": 399,
        "meta_bstar": -0.011914,
        "meta_mean_motion_dot": -0.01650085,
        "meta_mean_motion_ddot": 0,
        "tle_line1": "1 66492U 25263H   25336.50006943 -.01650085  00000+0 -11914-1 0  9994",
        "tle_line2": "2 66492  42.9988 185.6584 0001689 276.3582 131.8785 15.75401934  3996"
      },
      "geometry": {
        "type": "Point",
        "coordinates": [
          -19.38681471716407,
          19.7230234486011
        ]
      }
    },
    {
      "type": "Feature",
      "properties": {
        "norad_id": 66493,
        "name": "STARLINK-35597",
        "group": "last-30-days",
        "lat": 18.510525989251214,
        "lon": -17.821251894690462,
        "alt_km": 345.2216756493772,
        "timestamp": "2025-12-02T21:34:00.042425+00:00",
        "meta_object_name": "STARLINK-35597",
        "meta_object_id": "2025-263J",
        "meta_epoch": "2025-12-02T12:00:05.998752",
        "meta_mean_motion": 15.75396113,
        "meta_eccentricity": 0.0001606,
        "meta_inclination": 42.9988,
        "meta_ra_of_asc_node": 185.6535,
        "meta_arg_of_pericenter": 269.6544,
        "meta_mean_anomaly": 140.5067,
        "meta_ephemeris_type": 0,
        "meta_classification_type": "U",
        "meta_norad_cat_id": 66493,
        "meta_element_set_no": 999,
        "meta_rev_at_epoch": 399,
        "meta_bstar": -0.011918,
        "meta_mean_motion_dot": -0.01650148,
        "meta_mean_motion_ddot": 0,
        "tle_line1": "1 66493U 25263J   25336.50006943 -.01650148  00000+0 -11918-1 0  9999",
        "tle_line2": "2 66493  42.9988 185.6535 0001606 269.6544 140.5067 15.75396113  3997"
      },
      "geometry": {
        "type": "Point",
        "coordinates": [
          -17.821251894690462,
          18.510525989251214
        ]
      }
    },
    {
      "type": "Feature",
      "properties": {
        "norad_id": 66494,
        "name": "STARLINK-35689",
        "group": "last-30-days",
        "lat": 22.109461806303738,
        "lon": -22.59668403418332,
        "alt_km": 344.81625812802304,
        "timestamp": "2025-12-02T21:34:00.042435+00:00",
        "meta_object_name": "STARLINK-35689",
        "meta_object_id": "2025-263K",
        "meta_epoch": "2025-12-02T12:00:05.998752",
        "meta_mean_motion": 15.75404317,
        "meta_eccentricity": 0.0001686,
        "meta_inclination": 42.9988,
        "meta_ra_of_asc_node": 185.6686,
        "meta_arg_of_pericenter": 271.6517,
        "meta_mean_anomaly": 132.748,
        "meta_ephemeris_type": 0,
        "meta_classification_type": "U",
        "meta_norad_cat_id": 66494,
        "meta_element_set_no": 999,
        "meta_rev_at_epoch": 399,
        "meta_bstar": -0.011938,
        "meta_mean_motion_dot": -0.01653172,
        "meta_mean_motion_ddot": 0,
        "tle_line1": "1 66494U 25263K   25336.50006943 -.01653172  00000+0 -11938-1 0  9992",
        "tle_line2": "2 66494  42.9988 185.6686 0001686 271.6517 132.7480 15.75404317  3994"
      },
      "geometry": {
        "type": "Point",
        "coordinates": [
          -22.59668403418332,
          22.109461806303738
        ]
      }
    },
    {
      "type": "Feature",
      "properties": {
        "norad_id": 66495,
        "name": "STARLINK-35832",
        "group": "last-30-days",
        "lat": 17.283871293491707,
        "lon": -16.27610212280847,
        "alt_km": 345.229779484378,
        "timestamp": "2025-12-02T21:34:00.042445+00:00",
        "meta_object_name": "STARLINK-35832",
        "meta_object_id": "2025-263L",
        "meta_epoch": "2025-12-02T12:00:05.998752",
        "meta_mean_motion": 15.7540205,
        "meta_eccentricity": 0.0001543,
        "meta_inclination": 42.9987,
        "meta_ra_of_asc_node": 185.6488,
        "meta_arg_of_pericenter": 265.2752,
        "meta_mean_anomaly": 146.7914,
        "meta_ephemeris_type": 0,
        "meta_classification_type": "U",
        "meta_norad_cat_id": 66495,
        "meta_element_set_no": 999,
        "meta_rev_at_epoch": 399,
        "meta_bstar": -0.011877,
        "meta_mean_motion_dot": -0.01645439,
        "meta_mean_motion_ddot": 0,
        "tle_line1": "1 66495U 25263L   25336.50006943 -.01645439  00000+0 -11877-1 0  9992",
        "tle_line2": "2 66495  42.9987 185.6488 0001543 265.2752 146.7914 15.75402050  3995"
      },
      "geometry": {
        "type": "Point",
        "coordinates": [
          -16.27610212280847,
          17.283871293491707
        ]
      }
    },
    {
      "type": "Feature",
      "properties": {
        "norad_id": 66496,
        "name": "STARLINK-35909",
        "group": "last-30-days",
        "lat": 16.044688838434887,
        "lon": -14.750647682381802,
        "alt_km": 345.61696075171494,
        "timestamp": "2025-12-02T21:34:00.042455+00:00",
        "meta_object_name": "STARLINK-35909",
        "meta_object_id": "2025-263M",
        "meta_epoch": "2025-12-02T12:00:05.998752",
        "meta_mean_motion": 15.75400043,
        "meta_eccentricity": 0.0001498,
        "meta_inclination": 42.9986,
        "meta_ra_of_asc_node": 185.644,
        "meta_arg_of_pericenter": 276.4235,
        "meta_mean_anomaly": 137.5621,
        "meta_ephemeris_type": 0,
        "meta_classification_type": "U",
        "meta_norad_cat_id": 66496,
        "meta_element_set_no": 999,
        "meta_rev_at_epoch": 399,
        "meta_bstar": -0.011881,
        "meta_mean_motion_dot": -0.01645736,
        "meta_mean_motion_ddot": 0,
        "tle_line1": "1 66496U 25263M   25336.50006943 -.01645736  00000+0 -11881-1 0  9998",
        "tle_line2": "2 66496  42.9986 185.6440 0001498 276.4235 137.5621 15.75400043  3995"
      },
      "geometry": {
        "type": "Point",
        "coordinates": [
          -14.750647682381802,
          16.044688838434887
        ]
      }
    },
    {
      "type": "Feature",
      "properties": {
        "norad_id": 66497,
        "name": "STARLINK-35899",
        "group": "last-30-days",
        "lat": 14.797301190538075,
        "lon": -13.247851887428197,
        "alt_km": 345.8079580419899,
        "timestamp": "2025-12-02T21:34:00.042470+00:00",
        "meta_object_name": "STARLINK-35899",
        "meta_object_id": "2025-263N",
        "meta_epoch": "2025-12-02T12:00:05.998752",
        "meta_mean_motion": 15.75405258,
        "meta_eccentricity": 0.0001495,
        "meta_inclination": 42.9986,
        "meta_ra_of_asc_node": 185.6385,
        "meta_arg_of_pericenter": 278.2627,
        "meta_mean_anomaly": 137.6325,
        "meta_ephemeris_type": 0,
        "meta_classification_type": "U",
        "meta_norad_cat_id": 66497,
        "meta_element_set_no": 999,
        "meta_rev_at_epoch": 399,
        "meta_bstar": -0.01191,
        "meta_mean_motion_dot": -0.01649627,
        "meta_mean_motion_ddot": 0,
        "tle_line1": "1 66497U 25263N   25336.50006943 -.01649627  00000+0 -11910-1 0  9995",
        "tle_line2": "2 66497  42.9986 185.6385 0001495 278.2627 137.6325 15.75405258  3991"
      },
      "geometry": {
        "type": "Point",
        "coordinates": [
          -13.247851887428197,
          14.797301190538075
        ]
      }
    }
  ]
}